From: horizons@ssd.jpl.nasa.gov (Horizons Ephemeris System)
Subject: [Horizons] SMALL BODY #C(500@10)_T(Christensen (C/2014 W7)) (1/1)
Date: February 16, 2021 at 11:07:07 AM PST

Automated mail xmit by MAIL_REQUEST, PID= 31624 Tue Feb 16 11:07:07 2021
++++++++++++++++++++++++++++++++ (part 1 of 1)  +++++++++++++++++++++++++++++++


*******************************************************************************
Ephemeris / MAIL_REQUEST Tue Feb 16 11:07:07 2021 Pasadena, USA  / Horizons
*******************************************************************************
Target body name: Christensen (C/2014 W7)         {source: JPL#10}
Center body name: Sun (10)                        {source: DE431}
Center-site name: BODY CENTER
*******************************************************************************
Start time      : A.D. 2011-Dec-31 00:00:00.0000 TDB
Stop  time      : A.D. 2017-Dec-31 00:00:00.0000 TDB
Step-size       : 20160 minutes
*******************************************************************************
Center geodetic : 0.00000000,0.00000000,0.0000000 {E-lon(deg),Lat(deg),Alt(km)}
Center cylindric: 0.00000000,0.00000000,0.0000000 {E-lon(deg),Dxy(km),Dz(km)}
Center radii    : 696000.0 x 696000.0 x 696000.0 k{Equator, meridian, pole}    
Small perturbers: Yes                             {source: SB431-N16}
Output units    : AU-D
Output type     : GEOMETRIC cartesian states
Output format   : 3 (position, velocity, LT, range, range-rate)
Reference frame : Ecliptic of J2000.0
*******************************************************************************
Initial IAU76/J2000 heliocentric ecliptic osculating elements (au, days, deg.):
 EPOCH=  2457002.5 ! 2014-Dec-11.0000000 (TDB)    RMSW= n.a.                  
  EC= .8692679144849317   QR= 1.488254604156941   TP= 2457023.1215403387      
  OM= 151.2607538133497   W= 33.23974388781362    IN= 98.31367352136922       
 Equivalent ICRF heliocentric equatorial cartesian coordinates (au, au/d):
  X=-1.228028943015023E+00  Y= 5.039820134525910E-01  Z= 7.253389486069830E-01
 VX= 8.321212167883726E-03 VY=-8.378740142762107E-03 VZ= 1.502682393113992E-02
Comet physical (GM= km^3/s^2; RAD= km):                                        
  GM= n.a.                RAD= n.a.                                           
  M1=  16.3     M2=  18.4     k1=  10.    k2=  5.      PHCOF=  .030           
*******************************************************************************
           JDTDB,            Calendar Date (TDB),                      X,                      Y,                      Z,                     VX,                     VY,                     VZ,                     LT,                     RG,                     RR,
**************************************************************************************************************************************************************************************************************************************************************************
$$SOE
2457746.500000000, A.D. 2016-Dec-24 00:00:00.0000,  5.974093604691659E+00, -3.010590910188815E+00,  1.590777608716918E+00,  6.251270143178711E-03, -3.843672093363985E-03, -2.503748441819451E-03,  3.971441664934454E-02,  6.876338082622496E+00,  6.534654019417922E-03,
2457760.500000000, A.D. 2017-Jan-07 00:00:00.0000,  6.061083581924430E+00, -3.064135750204133E+00,  1.555586072238763E+00,  6.176185893594538E-03, -3.805728710239510E-03, -2.523411373862668E-03,  4.024069762012313E-02,  6.967460807991398E+00,  6.483031045640635E-03,
2457774.500000000, A.D. 2017-Jan-21 00:00:00.0000,  6.147035460286412E+00, -3.117155088401998E+00,  1.520127585957373E+00,  6.102955815822883E-03, -3.768594748618063E-03, -2.541896534631744E-03,  4.076284109164146E-02,  7.057867147570691E+00,  6.432307681207515E-03,
2457788.500000000, A.D. 2017-Feb-04 00:00:00.0000,  6.231974621899202E+00, -3.169660039407996E+00,  1.484418127645171E+00,  6.031499612322694E-03, -3.732239898390691E-03, -2.559276144136055E-03,  4.128091862146931E-02,  7.147569491169513E+00,  6.382456068983708E-03,
2457802.500000000, A.D. 2017-Feb-18 00:00:00.0000,  6.315925387488996E+00, -3.221661300474041E+00,  1.448472699656099E+00,  5.961744481030035E-03, -3.696633991397053E-03, -2.575617209360402E-03,  4.179499968893395E-02,  7.236579868760459E+00,  6.333451107047395E-03,
2457816.500000000, A.D. 2017-Mar-04 00:00:00.0000,  6.398911075955514E+00, -3.273169148953049E+00,  1.412305402978928E+00,  5.893619817403075E-03, -3.661747751964781E-03, -2.590981582708712E-03,  4.230515169681248E-02,  7.324909950772614E+00,  6.285266565890855E-03,
2457830.500000000, A.D. 2017-Mar-18 00:00:00.0000,  6.480954032804121E+00, -3.324193479311883E+00,  1.375929504581945E+00,  5.827057792876142E-03, -3.627556435257789E-03, -2.605426736807253E-03,  4.281143994086459E-02,  7.412571042816302E+00,  6.237877433317065E-03,
2457844.500000000, A.D. 2017-Apr-01 00:00:00.0000,  6.562075720635513E+00, -3.374743866350889E+00,  1.339357491296881E+00,  5.762001281261149E-03, -3.594036427578903E-03, -2.619006595791363E-03,  4.331392797550934E-02,  7.499574148998069E+00,  6.191265540300336E-03,
2457858.500000000, A.D. 2017-Apr-15 00:00:00.0000,  6.642296809125599E+00, -3.424829472049943E+00,  1.302601131397197E+00,  5.698389115664746E-03, -3.561154446431749E-03, -2.631769653061755E-03,  4.381267760688736E-02,  7.585929970719428E+00,  6.145402421994797E-03,
2457872.500000000, A.D. 2017-Apr-29 00:00:00.0000,  6.721637051752995E+00, -3.474459077094598E+00,  1.265671540760565E+00,  5.636156427756225E-03, -3.528890904267820E-03, -2.643761244558904E-03,  4.430774815345170E-02,  7.671648778652145E+00,  6.100259916892372E-03,
2457886.500000000, A.D. 2017-May-13 00:00:00.0000,  6.800115370265901E+00, -3.523641228498560E+00,  1.228579215933774E+00,  5.575248386203441E-03, -3.497229745521053E-03, -2.655024296126109E-03,  4.479919704733553E-02,  7.756740516861824E+00,  6.055817825901205E-03,
2457900.500000000, A.D. 2017-May-27 00:00:00.0000,  6.877749950832391E+00, -3.572384245367327E+00,  1.191334073389614E+00,  5.515614202361683E-03, -3.466154810898549E-03, -2.665598776984723E-03,  4.528708015599610E-02,  7.841214858498824E+00,  6.012057359639705E-03,
2457914.500000000, A.D. 2017-Jun-10 00:00:00.0000,  6.954558288847172E+00, -3.620696233524640E+00,  1.153945488693447E+00,  5.457206167919846E-03, -3.435652299270460E-03, -2.675522094177112E-03,  4.577145188453741E-02,  7.925081223514896E+00,  5.968961546777448E-03,
2457928.500000000, A.D. 2017-Jun-24 00:00:00.0000,  7.030557262989145E+00, -3.668585132182094E+00,  1.116422326566645E+00,  5.399985673221789E-03, -3.405710968189389E-03, -2.684829922448674E-03,  4.625236551855448E-02,  8.008348838024816E+00,  5.926520685950279E-03,
2457942.500000000, A.D. 2017-Jul-08 00:00:00.0000,  7.105763269919351E+00, -3.716058644373320E+00,  1.078772971369443E+00,  5.343917721870655E-03, -3.376306835438144E-03, -2.693554691682416E-03,  4.672987358284574E-02,  8.091026796415512E+00,  5.884720897257145E-03,
2457956.500000000, A.D. 2017-Jul-22 00:00:00.0000,  7.180192123617486E+00, -3.763124146678263E+00,  1.041005377642777E+00,  5.288956906213379E-03, -3.347421961448855E-03, -2.701726055207617E-03,  4.720402697559258E-02,  8.173123911433912E+00,  5.843540401142292E-03,
2457970.500000000, A.D. 2017-Aug-05 00:00:00.0000,  7.253859057365066E+00, -3.809788825001739E+00,  1.003127089819580E+00,  5.235066318142071E-03, -3.319043926955960E-03, -2.709372782076584E-03,  4.767487520587148E-02,  8.254648755310868E+00,  5.802965804623571E-03,
2457984.500000000, A.D. 2017-Aug-19 00:00:00.0000,  7.326778818183736E+00, -3.856059672051538E+00,  9.651452621022404E-01,  5.182212377456187E-03, -3.291157761010941E-03, -2.716521801636869E-03,  4.814246674773373E-02,  8.335609721068188E+00,  5.762984119494750E-03,
2457998.500000000, A.D. 2017-Sep-02 00:00:00.0000,  7.398965686826976E+00, -3.901943467116114E+00,  9.270666842760706E-01,  5.130361960722414E-03, -3.263748476546569E-03, -2.723198302733897E-03,  4.860684898298859E-02,  8.416015012611831E+00,  5.723581488558656E-03,
2458012.500000000, A.D. 2017-Sep-16 00:00:00.0000,  7.470433496036184E+00, -3.947446799737443E+00,  8.888978020911872E-01,  5.079485642461011E-03, -3.236804015452658E-03, -2.729426402378242E-03,  4.906806825644246E-02,  8.495872654296281E+00,  5.684747426597144E-03,
2458026.500000000, A.D. 2017-Sep-30 00:00:00.0000,  7.541195729724523E+00, -3.992576050464607E+00,  8.506447320741568E-01,  5.029560634275704E-03, -3.210303202630685E-03, -2.735228536661711E-03,  4.952617023195986E-02,  8.575190552574586E+00,  5.646471972436353E-03,
2458040.500000000, A.D. 2017-Oct-14 00:00:00.0000,  7.611265457224015E+00, -4.037337252088156E+00,  8.123132999219580E-01,  4.980549687197653E-03, -3.184223374054263E-03, -2.740624231703456E-03,  4.998119910874476E-02,  8.653976360301682E+00,  5.608730819782515E-03,
2458054.500000000, A.D. 2017-Oct-28 00:00:00.0000,  7.680655227721092E+00, -4.081736216953951E+00,  7.739090597584410E-01,  4.932418842127457E-03, -3.158553195950878E-03, -2.745632847632446E-03,  5.043319734176750E-02,  8.732237428327810E+00,  5.571506707410740E-03,
2458068.500000000, A.D. 2017-Nov-11 00:00:00.0000,  7.749377152568711E+00, -4.125778598148843E+00,  7.354373006563678E-01,  4.885138235832249E-03, -3.133280891378045E-03, -2.750272752858133E-03,  5.088220614118800E-02,  8.809980891970975E+00,  5.534784842784698E-03,
2458082.500000000, A.D. 2017-Nov-25 00:00:00.0000,  7.817442928370108E+00, -4.169469887955680E+00,  6.969030628343306E-01,  4.838678379130310E-03, -3.108395734893577E-03, -2.754561169986197E-03,  5.132826551445767E-02,  8.887213678306651E+00,  5.498550405874937E-03,
2458096.500000000, A.D. 2017-Dec-09 00:00:00.0000,  7.884863847941390E+00, -4.212815454334764E+00,  6.583111508936936E-01,  4.793012030301246E-03, -3.083891197218209E-03, -2.758514677641551E-03,  5.177141435341794E-02,  8.963942521248445E+00,  5.462791699894002E-03,
